NANOSATC-BR1            
1 40024U 14033Q   26068.98267556  .00020336  00000+0  74295-3 0  9994
2 40024  98.0845  92.7804 0004644 147.6715 212.4808 15.28136801638811
STARLINK-35706          
1 67051U 25294X   26068.78436664  .00022879  00000+0  83859-3 0  9990
2 67051  43.0009  37.5365 0000941 279.7056  80.3690 15.27570629 14810
